[{"OBJECT_NAME":"STARLINK-30785","OBJECT_ID":"2023-167S","EPOCH":"2026-03-09T13:22:21.643680","MEAN_MOTION":15.26746987,"ECCENTRICITY":0.0001287,"INCLINATION":42.9994,"RA_OF_ASC_NODE":144.2469,"ARG_OF_PERICENTER":264.4263,"MEAN_ANOMALY":95.6441,"EPHEMERIS_TYPE":0,"CLASSIFICATION_TYPE":"U","NORAD_CAT_ID":58191,"ELEMENT_SET_NO":999,"REV_AT_EPOCH":13096,"BSTAR":4.0356e-5,"MEAN_MOTION_DOT":8.23e-6,"MEAN_MOTION_DDOT":0},{"OBJECT_NAME":"CZ-6A DEB","OBJECT_ID":"2024-140ZM","EPOCH":"2026-03-09T08:08:19.885920","MEAN_MOTION":14.97554426,"ECCENTRICITY":0.01813088,"INCLINATION":90.2734,"RA_OF_ASC_NODE":12.4689,"ARG_OF_PERICENTER":116.477,"MEAN_ANOMALY":245.5188,"EPHEMERIS_TYPE":0,"CLASSIFICATION_TYPE":"U","NORAD_CAT_ID":61455,"ELEMENT_SET_NO":999,"REV_AT_EPOCH":8308,"BSTAR":0.00078895456,"MEAN_MOTION_DOT":0.00012969,"MEAN_MOTION_DDOT":0}]
